[
    {
        "Altitude(m)": 575955.3712426588,
        "Argument of Periapsis(deg)": 0.0,
        "Eccentricity": 0.0,
        "Inclination(deg)": 97.0,
        "Latitude(deg)": 73.08222691664278,
        "Longitude(deg)": -33.640219947574195,
        "Mean Anomaly(deg)": 74.4828,
        "RAAN(deg)": 90.0,
        "Satellite Name": "Starlink Shell 3 1770",
        "Satellite Number": 1770,
        "Semi-Major Axis(m)": 6938478.169268562,
        "Time(s)": 0
    },
    {
        "Altitude(m)": 576033.1269322137,
        "Argument of Periapsis(deg)": -0.0003965466804030246,
        "Eccentricity": 0.0,
        "Inclination(deg)": 97.0,
        "Latitude(deg)": 73.64658627882447,
        "Longitude(deg)": -34.60357186274735,
        "Mean Anomaly(deg)": 75.10827619770502,
        "RAAN(deg)": 90.00010433427403,
        "Satellite Name": "Starlink Shell 3 1770",
        "Satellite Number": 1770,
        "Semi-Major Axis(m)": 6938478.169268562,
        "Time(s)": 10
    },
    {
        "Altitude(m)": 576108.0322956572,
        "Argument of Periapsis(deg)": -0.0007930933608060492,
        "Eccentricity": 0.0,
        "Inclination(deg)": 97.0,
        "Latitude(deg)": 74.20662783308269,
        "Longitude(deg)": -35.63063498895004,
        "Mean Anomaly(deg)": 75.7337523954101,
        "RAAN(deg)": 90.00020866854803,
        "Satellite Name": "Starlink Shell 3 1770",
        "Satellite Number": 1770,
        "Semi-Major Axis(m)": 6938478.169268562,
        "Time(s)": 20
    },
    {
        "Altitude(m)": 576180.0448177551,
        "Argument of Periapsis(deg)": -0.001189640041209074,
        "Eccentricity": 0.0,
        "Inclination(deg)": 97.0,
        "Latitude(deg)": 74.76188123590556,
        "Longitude(deg)": -36.72786491192135,
        "Mean Anomaly(deg)": 76.35922859311513,
        "RAAN(deg)": 90.00031300282203,
        "Satellite Name": "Starlink Shell 3 1770",
        "Satellite Number": 1770,
        "Semi-Major Axis(m)": 6938478.169268562,
        "Time(s)": 30
    },
    {
        "Altitude(m)": 576249.1236572352,
        "Argument of Periapsis(deg)": -0.0015861867216120985,
        "Eccentricity": 0.0,
        "Inclination(deg)": 97.0,
        "Latitude(deg)": 75.31180919377974,
        "Longitude(deg)": -37.902513675128276,
        "Mean Anomaly(deg)": 76.98470479082017,
        "RAAN(deg)": 90.00041733709604,
        "Satellite Name": "Starlink Shell 3 1770",
        "Satellite Number": 1770,
        "Semi-Major Axis(m)": 6938478.169268562,
        "Time(s)": 40
    },
    {
        "Altitude(m)": 576315.2296660661,
        "Argument of Periapsis(deg)": -0.0019827334020151234,
        "Eccentricity": 0.0,
        "Inclination(deg)": 97.0,
        "Latitude(deg)": 75.85579625093308,
        "Longitude(deg)": -39.162733384375755,
        "Mean Anomaly(deg)": 77.61018098852523,
        "RAAN(deg)": 90.00052167137004,
        "Satellite Name": "Starlink Shell 3 1770",
        "Satellite Number": 1770,
        "Semi-Major Axis(m)": 6938478.169268562,
        "Time(s)": 50
    },
    {
        "Altitude(m)": 576378.3254079471,
        "Argument of Periapsis(deg)": -0.002379280082418148,
        "Eccentricity": 0.0,
        "Inclination(deg)": 97.0,
        "Latitude(deg)": 76.39313555541514,
        "Longitude(deg)": -40.517687086158006,
        "Mean Anomaly(deg)": 78.23565718623027,
        "RAAN(deg)": 90.00062600564407,
        "Satellite Name": "Starlink Shell 3 1770",
        "Satellite Number": 1770,
        "Semi-Major Axis(m)": 6938478.169268562,
        "Time(s)": 60
    },
    {
        "Altitude(m)": 576438.3751759504,
        "Argument of Periapsis(deg)": -0.002775826762821173,
        "Eccentricity": 0.0,
        "Inclination(deg)": 97.0,
        "Latitude(deg)": 76.92301327151182,
        "Longitude(deg)": -41.97766605610546,
        "Mean Anomaly(deg)": 78.86113338393534,
        "RAAN(deg)": 90.00073033991806,
        "Satellite Name": "Starlink Shell 3 1770",
        "Satellite Number": 1770,
        "Semi-Major Axis(m)": 6938478.169268562,
        "Time(s)": 70
    },
    {
        "Altitude(m)": 576495.3450093494,
        "Argument of Periapsis(deg)": -0.003172373443224197,
        "Eccentricity": 0.0,
        "Inclination(deg)": 97.0,
        "Latitude(deg)": 77.44449028953377,
        "Longitude(deg)": -43.5542103732881,
        "Mean Anomaly(deg)": 79.48660958164037,
        "RAAN(deg)": 90.00083467419208,
        "Satellite Name": "Starlink Shell 3 1770",
        "Satellite Number": 1770,
        "Semi-Major Axis(m)": 6938478.169268562,
        "Time(s)": 80
    },
    {
        "Altitude(m)": 576549.2027096209,
        "Argument of Periapsis(deg)": -0.0035689201236272223,
        "Eccentricity": 0.0,
        "Inclination(deg)": 97.0,
        "Latitude(deg)": 77.95648089608433,
        "Longitude(deg)": -45.26022164535602,
        "Mean Anomaly(deg)": 80.11208577934539,
        "RAAN(deg)": 90.00093900846608,
        "Satellite Name": "Starlink Shell 3 1770",
        "Satellite Number": 1770,
        "Semi-Major Axis(m)": 6938478.169268562,
        "Time(s)": 90
    },
    {
        "Altitude(m)": 576599.9178555924,
        "Argument of Periapsis(deg)": -0.003965466804030247,
        "Eccentricity": 0.0,
        "Inclination(deg)": 97.0,
        "Latitude(deg)": 78.45772813348074,
        "Longitude(deg)": -47.11005609959989,
        "Mean Anomaly(deg)": 80.73756197705043,
        "RAAN(deg)": 90.00104334274009,
        "Satellite Name": "Starlink Shell 3 1770",
        "Satellite Number": 1770,
        "Semi-Major Axis(m)": 6938478.169268562,
        "Time(s)": 100
    },
    {
        "Altitude(m)": 576647.4618177494,
        "Argument of Periapsis(deg)": -0.004362013484433271,
        "Eccentricity": 0.0,
        "Inclination(deg)": 97.0,
        "Latitude(deg)": 78.94677573449937,
        "Longitude(deg)": -49.11957872371105,
        "Mean Anomaly(deg)": 81.36303817475547,
        "RAAN(deg)": 90.0011476770141,
        "Satellite Name": "Starlink Shell 3 1770",
        "Satellite Number": 1770,
        "Semi-Major Axis(m)": 6938478.169268562,
        "Time(s)": 110
    },
    {
        "Altitude(m)": 576691.8077717081,
        "Argument of Periapsis(deg)": -0.004758560164836296,
        "Eccentricity": 0.0,
        "Inclination(deg)": 97.0,
        "Latitude(deg)": 79.4219368257858,
        "Longitude(deg)": -51.306144040328824,
        "Mean Anomaly(deg)": 81.98851437246053,
        "RAAN(deg)": 90.0012520112881,
        "Satellite Name": "Starlink Shell 3 1770",
        "Satellite Number": 1770,
        "Semi-Major Axis(m)": 6938478.169268562,
        "Time(s)": 120
    },
    {
        "Altitude(m)": 576732.9307107849,
        "Argument of Periapsis(deg)": -0.005155106845239321,
        "Eccentricity": 0.0,
        "Inclination(deg)": 97.0,
        "Latitude(deg)": 79.88126013250584,
        "Longitude(deg)": -53.68845948709994,
        "Mean Anomaly(deg)": 82.61399057016557,
        "RAAN(deg)": 90.00135634556213,
        "Satellite Name": "Starlink Shell 3 1770",
        "Satellite Number": 1770,
        "Semi-Major Axis(m)": 6938478.169268562,
        "Time(s)": 130
    },
    {
        "Altitude(m)": 576770.8074577773,
        "Argument of Periapsis(deg)": -0.005551653525642346,
        "Eccentricity": 0.0,
        "Inclination(deg)": 97.0,
        "Latitude(deg)": 80.32249529713268,
        "Longitude(deg)": -56.286269627306034,
        "Mean Anomaly(deg)": 83.23946676787061,
        "RAAN(deg)": 90.00146067983613,
        "Satellite Name": "Starlink Shell 3 1770",
        "Satellite Number": 1770,
        "Semi-Major Axis(m)": 6938478.169268562,
        "Time(s)": 140
    },
    {
        "Altitude(m)": 576805.41667583,
        "Argument of Periapsis(deg)": -0.005948200206045371,
        "Eccentricity": 0.0,
        "Inclination(deg)": 97.0,
        "Latitude(deg)": 80.74306027442873,
        "Longitude(deg)": -59.11977491869666,
        "Mean Anomaly(deg)": 83.86494296557565,
        "RAAN(deg)": 90.00156501411013,
        "Satellite Name": "Starlink Shell 3 1770",
        "Satellite Number": 1770,
        "Semi-Major Axis(m)": 6938478.169268562,
        "Time(s)": 150
    },
    {
        "Altitude(m)": 576836.7388784355,
        "Argument of Periapsis(deg)": -0.006344746886448394,
        "Eccentricity": 0.0,
        "Inclination(deg)": 97.0,
        "Latitude(deg)": 81.14001569500512,
        "Longitude(deg)": -62.20868530173402,
        "Mean Anomaly(deg)": 84.4904191632807,
        "RAAN(deg)": 90.00166934838414,
        "Satellite Name": "Starlink Shell 3 1770",
        "Satellite Number": 1770,
        "Semi-Major Axis(m)": 6938478.169268562,
        "Time(s)": 160
    },
    {
        "Altitude(m)": 576864.7564385678,
        "Argument of Periapsis(deg)": -0.00674129356685142,
        "Eccentricity": 0.0,
        "Inclination(deg)": 97.0,
        "Latitude(deg)": 81.51005362896038,
        "Longitude(deg)": -65.57080179566043,
        "Mean Anomaly(deg)": 85.11589536098575,
        "RAAN(deg)": 90.00177368265814,
        "Satellite Name": "Starlink Shell 3 1770",
        "Satellite Number": 1770,
        "Semi-Major Axis(m)": 6938478.169268562,
        "Time(s)": 170
    },
    {
        "Altitude(m)": 576889.4535969652,
        "Argument of Periapsis(deg)": -0.007137840247254445,
        "Eccentricity": 0.0,
        "Inclination(deg)": 97.0,
        "Latitude(deg)": 81.8495111133401,
        "Longitude(deg)": -69.22003431901088,
        "Mean Anomaly(deg)": 85.74137155869079,
        "RAAN(deg)": 90.00187801693217,
        "Satellite Name": "Starlink Shell 3 1770",
        "Satellite Number": 1770,
        "Semi-Major Axis(m)": 6938478.169268562,
        "Time(s)": 180
    }
]